name,phone,address,email,numberrange,country
Kasper Joyce,(783) 575-3047,Ap #880-4780 Sem St.,aliquam.arcu@aol.org,6,Austria
Damon Cash,(757) 236-2716,Ap #653-266 Donec Rd.,ac.ipsum.phasellus@protonmail.net,8,Sweden
Penelope Fisher,(224) 778-3584,Ap #917-5841 Urna. St.,aliquam.nec.enim@protonmail.couk,5,France
Kai Fuller,1-812-785-3666,7611 Dui. Street,tempus.scelerisque@outlook.net,0,Canada
Tyrone Owens,(472) 158-8541,Ap #664-7895 Neque. Road,scelerisque.sed.sapien@icloud.com,1,Nigeria
Uriel Cotton,(448) 768-8201,963-3421 Fusce St.,accumsan.neque@hotmail.edu,1,Chile
Emmanuel Mendez,1-912-512-0525,482-9600 Donec Rd.,vulputate@icloud.edu,10,Indonesia
Brianna Blevins,1-200-885-5127,"Ap #429-896 Quis, Avenue",duis.volutpat.nunc@protonmail.net,9,Singapore
Martena Albert,(386) 249-2211,Ap #171-3849 Elit. Av.,rutrum.justo.praesent@icloud.org,0,Pakistan
Cleo Wyatt,1-986-204-6226,"P.O. Box 861, 9791 Sollicitudin St.",sit.amet@protonmail.net,0,Singapore
Iris Delaney,1-284-823-8676,"P.O. Box 300, 1851 Gravida Ave",molestie@yahoo.com,2,China
Lucy Cobb,(839) 655-0472,997 Mi Street,rhoncus.nullam@yahoo.net,9,South Africa
Denise Thomas,1-848-386-9821,695 Ultrices St.,elit.fermentum.risus@yahoo.edu,5,Poland
McKenzie Tate,1-843-732-0558,752-8673 Sociis Av.,laoreet@icloud.couk,2,Singapore
Uma Park,1-681-607-2817,Ap #224-7016 Aliquam Rd.,vivamus@outlook.ca,9,Peru
Eve Harrison,(886) 225-2297,Ap #625-8358 Urna Road,aliquet.molestie@google.ca,7,France
Cassandra French,1-673-251-3311,Ap #139-8868 Lacus. Avenue,tristique.pellentesque.tellus@google.ca,7,Belgium
Kermit Orr,(820) 270-8183,"P.O. Box 437, 5099 Donec St.",mauris.sagittis@protonmail.org,3,Philippines
Farrah Jimenez,1-266-653-9713,317-5738 Ante St.,morbi@hotmail.org,9,Austria
Caesar Dorsey,(787) 835-6115,Ap #784-5795 Id Road,mattis.ornare@icloud.org,5,Brazil
Calista Russo,(727) 362-3222,987-6209 Gravida. Road,auctor@outlook.edu,5,Poland
Bradley Hunter,1-222-654-6243,926-4493 Ipsum Rd.,libero.lacus@hotmail.com,0,Sweden
Hasad Lancaster,1-779-391-1351,"P.O. Box 936, 2385 Nunc St.",neque.vitae@yahoo.net,9,Brazil
Buckminster Diaz,1-856-669-9064,Ap #680-950 Cum St.,nisl.nulla@protonmail.ca,2,Ukraine
Laura Kemp,1-523-751-2044,Ap #470-1620 Vitae Ave,parturient@hotmail.ca,1,Ukraine
Jolene Livingston,(743) 986-8740,Ap #844-9921 Amet Avenue,nisi@yahoo.couk,7,Belgium
Robert Warren,1-724-983-8767,"829-9805 Vel, Rd.",nec.malesuada.ut@protonmail.ca,5,Russian Federation
Kasimir Hensley,1-117-863-5614,453-1075 Mauris. Ave,turpis@icloud.edu,4,South Korea
Elton Elliott,1-531-724-5223,3186 Dolor Av.,elit.curabitur@outlook.org,7,Indonesia
Delilah Ruiz,1-773-772-5161,7546 In Street,purus.mauris@icloud.edu,7,Ukraine
Graham Fry,(341) 185-7335,Ap #179-8873 Ut Avenue,egestas.fusce@icloud.org,5,Russian Federation
Kennan Cunningham,(485) 626-8674,Ap #549-8264 Donec Rd.,sit.amet.dapibus@aol.couk,4,Italy
Kelsie Blair,(246) 245-7653,182-7715 Non Avenue,nibh.aliquam@google.edu,7,Vietnam
Juliet Myers,(578) 787-4831,463-887 Amet Rd.,tellus.non@yahoo.com,1,France
Nerea Branch,(269) 276-2622,"P.O. Box 467, 5007 Tortor. Road",non.dui@google.edu,10,Pakistan
Jermaine Williamson,1-240-838-2844,Ap #313-9764 Enim Street,consequat.lectus@protonmail.ca,4,Sweden
Alika Pate,(346) 653-3313,Ap #166-6859 Rutrum Avenue,rhoncus.nullam.velit@google.couk,0,Spain
Sybill Summers,1-679-822-3255,902-1142 Malesuada St.,nulla@aol.net,2,Ukraine
Breanna Rice,(441) 258-1356,4260 Arcu St.,nisl.arcu@yahoo.ca,7,Nigeria
Micah Mooney,(786) 268-2293,3425 Ligula. Street,nunc@outlook.net,5,Netherlands
Driscoll Hooper,(341) 466-8649,Ap #695-6446 Eu Road,integer.aliquam@icloud.edu,8,Poland
Guinevere Ryan,1-476-363-1866,352-4982 Orci Road,nullam@hotmail.org,7,Singapore
Remedios Melton,1-601-801-6788,280-6975 Dui St.,interdum.libero.dui@hotmail.couk,6,China
Whilemina Foley,1-865-752-5384,Ap #718-5444 Nullam St.,egestas.nunc@hotmail.couk,6,Indonesia
Cedric Espinoza,1-252-920-5146,978-8615 Quis St.,a.feugiat.tellus@icloud.ca,1,Sweden
Tarik Chambers,(638) 522-5417,718-1318 Neque Street,porttitor.interdum.sed@aol.couk,7,Indonesia
Hyatt Lester,1-473-267-5424,"P.O. Box 556, 6586 Nulla Avenue",eget.nisi@aol.ca,0,Nigeria
Jana Sexton,1-421-676-4117,Ap #192-6285 Gravida Rd.,dolor@outlook.net,3,Germany
Rahim Riddle,1-736-733-1291,Ap #174-1258 Aenean St.,donec.est.nunc@outlook.edu,9,Norway
Kato Whitfield,(146) 886-8079,235-4518 Imperdiet Av.,molestie.tellus.aenean@aol.net,9,Netherlands
Kylynn Sherman,1-873-712-3387,Ap #875-911 Ipsum Ave,imperdiet.ornare@protonmail.org,1,Nigeria
Rebekah Barnett,(835) 139-5816,"3266 Ornare, St.",bibendum.ullamcorper@protonmail.com,4,Mexico
Caleb Whitehead,1-551-312-8338,"612-8297 Luctus, Road",scelerisque.sed.sapien@icloud.net,7,Turkey
Savannah Meadows,(685) 529-8874,"P.O. Box 957, 3723 Duis Av.",iaculis.enim.sit@icloud.edu,5,Chile
Joel Michael,1-614-675-3155,Ap #971-3249 Nullam Avenue,ac.turpis@hotmail.ca,9,Philippines
Damon Petersen,1-680-418-8649,"P.O. Box 833, 3356 Diam Rd.",aliquam.iaculis@protonmail.couk,8,Peru
Orlando Lindsey,(269) 288-8271,332-7310 Dictum St.,nec.orci@outlook.org,2,Ukraine
Jeremy Rasmussen,(807) 746-6588,Ap #249-6646 Est Rd.,lectus.ante@google.couk,9,Spain
Caldwell Mayer,(492) 989-1317,Ap #854-5646 Sed Rd.,nunc.laoreet@hotmail.ca,1,Poland
Gemma Espinoza,(267) 748-4553,425-1935 Molestie Av.,blandit.viverra@google.org,10,New Zealand
Heather Salinas,1-123-222-8888,"Ap #936-8052 Dolor, Ave",suscipit@protonmail.org,4,Nigeria
Buffy Pitts,(409) 568-1590,Ap #629-4929 Cum Street,enim.condimentum.eget@icloud.org,1,South Korea
Irene Reid,1-221-281-8165,"663-2716 Facilisis, Avenue",non.egestas.a@icloud.com,5,France
Garrett Workman,(744) 184-6115,"P.O. Box 837, 149 Eu Rd.",eu.elit.nulla@yahoo.com,0,Poland
Oprah Decker,1-567-572-7252,Ap #148-1011 Urna Rd.,risus.in@icloud.ca,5,Russian Federation
Illana Travis,(755) 682-2243,684-5620 Dolor Street,pretium.et@aol.couk,2,Philippines
Vladimir Montoya,1-638-442-6656,397-5125 Phasellus Rd.,mauris.rhoncus.id@yahoo.net,1,Indonesia
Geoffrey Pace,(834) 254-8455,"627-1471 Non, Avenue",risus.a.ultricies@yahoo.net,1,Spain
Scott Richardson,1-677-770-5426,760-7872 Pede. Rd.,a.aliquet@hotmail.edu,5,Spain
Alden Ayala,1-939-314-0001,4113 Ut Rd.,risus.at@icloud.couk,7,Germany
Drake Miller,1-119-564-2664,"Ap #640-5632 Amet, Rd.",eros.nec@google.edu,0,Philippines
Alexa Nash,1-599-577-3644,"Ap #323-7431 Et, Ave",montes.nascetur@icloud.edu,4,Sweden
Lucas Rowland,1-736-342-5941,208-2046 Nam Av.,lectus.pede@outlook.org,3,Vietnam
Allegra Castillo,1-599-854-2304,"P.O. Box 922, 3958 Vulputate Av.",eros@icloud.net,10,Nigeria
Courtney Meyers,1-722-271-8244,"490-6134 Nec, Ave",ut.nisi@google.org,3,New Zealand
Inga Johnson,(187) 734-3572,6483 Venenatis St.,netus.et@protonmail.net,3,Colombia
Nicole Ayala,(626) 162-5178,"P.O. Box 937, 7756 Mauris Ave",cursus@aol.edu,0,Belgium
Iona Oneil,(714) 632-7238,9907 Nulla Ave,commodo@protonmail.com,5,Brazil
Amethyst Austin,1-564-269-1447,917-2045 Auctor Av.,lorem.fringilla@outlook.ca,5,Spain
Mariam Beasley,1-281-633-7753,"Ap #430-1579 Pharetra, Ave",diam.proin.dolor@hotmail.net,8,Belgium
Louis Bruce,(749) 338-2133,398-7279 Nibh. St.,proin.ultrices.duis@hotmail.couk,5,Spain
Charissa Gilliam,(397) 580-6425,222-4780 Morbi St.,amet.risus@aol.org,5,Russian Federation
Athena Petersen,1-399-758-4967,5611 Nunc Av.,arcu.morbi@outlook.net,6,Germany
Mason Christian,1-858-580-4199,"P.O. Box 873, 8208 Arcu Rd.",eros@protonmail.couk,3,Netherlands
Tasha Pickett,1-592-373-1257,7178 Morbi Av.,et.commodo@icloud.net,0,China
Alexa Mason,1-630-540-0271,Ap #598-4958 Lectus St.,rutrum.urna@outlook.couk,4,New Zealand
Daquan Petersen,(668) 892-3725,"P.O. Box 661, 5646 Nulla. Rd.",montes.nascetur@aol.com,2,Ireland
Quamar Vang,1-465-887-2784,"P.O. Box 827, 8731 Est Road",venenatis@google.org,6,Russian Federation
Shelby Patterson,(634) 316-9422,622-3167 Sed Road,bibendum.sed@hotmail.edu,2,Sweden
Darryl Snow,1-334-887-0377,4108 Ligula. Av.,lectus@aol.org,7,Brazil
Cecilia Middleton,1-571-656-2248,Ap #901-6009 Aliquam Street,mi.fringilla.mi@hotmail.com,10,Canada
Ezra Barnes,(122) 993-7235,898-5572 Arcu. Ave,mollis@outlook.net,0,Costa Rica
Adria Johnston,1-248-512-6488,"P.O. Box 792, 8742 Vel St.",amet@yahoo.couk,5,Norway
Elijah Lott,(977) 643-7542,"P.O. Box 803, 448 Fringilla Av.",condimentum@hotmail.com,9,Philippines
Jessica Velasquez,1-406-458-8364,188 Leo. Road,enim.non.nisi@hotmail.edu,5,Chile
Nathan Abbott,1-988-456-8858,"P.O. Box 996, 5676 Magna Road",suspendisse.commodo@google.org,5,Germany
Ezra Mercer,1-476-665-3055,"P.O. Box 256, 8665 Iaculis Av.",varius@icloud.couk,7,France
Abel Leon,(860) 693-1341,"P.O. Box 793, 8395 Vulputate Ave",sed.id@icloud.net,4,France
Mikayla Quinn,1-841-566-1413,733-4563 Quisque Street,scelerisque@google.net,4,Sweden
Lesley Barron,1-716-343-6331,580-8889 Donec Rd.,tincidunt@protonmail.com,3,Nigeria
Gabriel Parks,(495) 557-3888,"513-907 Est, St.",maecenas@yahoo.couk,5,France
Ulric West,(489) 567-6864,Ap #835-3961 Molestie Road,elit.aliquam.auctor@yahoo.org,1,Germany
Cora Cunningham,1-664-728-4518,973-3895 Lobortis Ave,a@outlook.couk,6,United Kingdom
Amela Collier,1-833-246-3246,Ap #970-9436 Diam Street,nulla.facilisis@protonmail.net,5,United States
Lev Ellis,(607) 889-3402,228-3386 Non Ave,libero.integer.in@google.net,1,Singapore
Hashim Mckay,1-629-235-5367,"214-8052 Vitae, Ave",pede.nunc@protonmail.com,3,Russian Federation
Blaze Burris,1-576-508-6525,661-3802 Bibendum Road,ultrices@hotmail.ca,1,Ukraine
Maggie Bartlett,(484) 711-6166,"P.O. Box 671, 7044 Sit Road",aenean.euismod.mauris@icloud.couk,9,Ukraine
Zenaida James,1-426-653-5161,Ap #831-2668 Hendrerit Road,sit.amet@icloud.couk,2,Philippines
Dexter Gibbs,1-303-513-4257,Ap #666-3749 Bibendum Avenue,ornare@hotmail.com,3,South Africa
Colleen Whitney,1-448-359-7313,222-4330 Donec St.,elit@protonmail.org,8,Germany
Joan Holcomb,1-911-555-8858,621-9816 Lacus Avenue,orci.luctus@icloud.couk,2,Norway
Adrian Nixon,1-496-584-5828,503-8770 Nunc Rd.,nec.mauris@protonmail.ca,10,Turkey
Lacota Dorsey,(451) 425-4267,"P.O. Box 369, 5857 Ac Rd.",nulla@aol.net,7,Sweden
Kaye Buckley,(263) 811-6371,Ap #620-2717 Magna Street,in@protonmail.com,10,United Kingdom
Shelby Boyle,(704) 364-6158,767-889 Ante Road,nibh@google.ca,3,Turkey
Aquila Willis,(885) 453-3791,Ap #966-5902 Id St.,nec@outlook.org,4,Colombia
Camden Bruce,1-180-672-6481,"695-1694 Lorem, Rd.",aliquet@icloud.com,10,Costa Rica
Malcolm Alvarez,(587) 282-1627,Ap #614-8849 Nam Street,nec.mauris.blandit@hotmail.ca,8,Mexico
Alan Pitts,(981) 942-1853,"P.O. Box 233, 3811 Elementum, Ave",dui@protonmail.couk,9,South Africa
Walker Mueller,(294) 433-6658,Ap #425-7167 Nisi Street,pede@icloud.com,4,Mexico
Dominic O'Neill,(470) 618-9876,5364 Magna Avenue,lacus.pede@aol.couk,1,United States
Tanek Sargent,1-424-414-6554,"P.O. Box 102, 420 Praesent Rd.",sem@aol.net,10,Pakistan
Kirk Rice,(784) 436-3823,Ap #845-3413 Eget St.,mi.eleifend@hotmail.ca,8,United States
Charde Hinton,(675) 304-2248,Ap #192-8274 Praesent St.,integer@outlook.com,1,Nigeria
Jarrod Davis,(461) 331-3783,"P.O. Box 929, 8708 Dolor St.",sit.amet.metus@aol.com,4,Vietnam
Stone Bowers,1-317-693-6437,272-2500 Dolor. Rd.,vel.arcu@hotmail.ca,6,South Africa
Blythe Kemp,1-184-725-0312,5882 Accumsan Rd.,sit.amet@google.com,5,Indonesia
Kieran Conley,(476) 481-4445,Ap #343-6761 Et St.,sem.semper@outlook.org,6,India
Christian Webb,1-923-372-8724,888-8148 Sit St.,auctor@aol.couk,3,Spain
Zoe Ayala,(786) 235-4933,Ap #126-1097 Congue St.,morbi.non@outlook.ca,9,United Kingdom
Sonia Henson,1-431-737-1518,"Ap #819-562 Id, Rd.",est.vitae@yahoo.com,5,South Korea
Regan Hodges,1-338-357-8021,209-9880 Ultrices Rd.,magna@outlook.net,6,Netherlands
Britanni Foreman,1-214-918-0391,8528 Fames St.,leo.in@hotmail.net,6,Canada
Thomas Byers,1-369-424-3198,Ap #390-9195 Arcu. Ave,risus.at@protonmail.com,1,India
Cora Velez,1-206-751-8232,Ap #907-2484 Molestie. Avenue,lectus.pede@protonmail.net,10,United Kingdom
Melodie Ross,1-468-843-6784,"652-6531 A, Rd.",eget.odio@protonmail.net,7,Spain
Francesca Dickson,1-424-837-9172,488-4013 Sociis Ave,metus.vitae.velit@protonmail.org,8,Norway
Lenore Fischer,(829) 471-2543,"P.O. Box 619, 4774 At Av.",vel.nisl@outlook.com,8,Chile
Mona Bates,(887) 211-5796,"Ap #135-825 Vulputate, St.",morbi.neque@google.net,4,Belgium
Vaughan Hardin,(988) 652-9285,Ap #781-2226 Vulputate Rd.,id.ante@hotmail.net,8,Nigeria
Selma Frank,(246) 732-8486,"P.O. Box 686, 960 Eget, Rd.",mauris.id.sapien@hotmail.org,4,South Korea
Anne Patton,1-315-783-5257,8776 Aliquam Rd.,augue.eu.tellus@icloud.org,2,Philippines
Philip Burns,1-571-728-1254,Ap #561-8021 Nulla Road,non.ante.bibendum@google.org,5,Peru
Tyrone Bishop,(842) 327-5708,Ap #578-3088 Semper Street,dictum.sapien@google.com,3,China
Byron Travis,(272) 630-1075,"P.O. Box 514, 355 Vitae, Avenue",eu.augue.porttitor@hotmail.org,7,South Africa
Barrett Contreras,1-642-143-8811,336-9282 Ullamcorper Rd.,cursus.non@google.org,1,Singapore
Melissa Dyer,1-268-858-4181,Ap #383-917 Sagittis. Ave,cum.sociis.natoque@aol.org,9,Turkey
Galvin Banks,(214) 889-3766,344-828 Ligula St.,gravida.mauris.ut@icloud.ca,9,Netherlands
Brianna Sharp,(331) 622-1776,"P.O. Box 229, 7489 Nisl. St.",ligula.consectetuer@google.ca,0,Norway
Regina Deleon,1-266-835-7528,Ap #878-9858 Ipsum. Ave,cursus.non.egestas@google.edu,3,South Africa
Josiah Davis,1-446-743-3712,375-3200 Odio. Road,orci.quis@icloud.net,0,Ireland
Matthew Hunt,(212) 691-4486,"P.O. Box 443, 5807 In St.",eu.placerat.eget@yahoo.ca,1,Sweden
Travis Aguirre,1-676-853-1937,"Ap #108-7047 Lorem, Ave",blandit.viverra.donec@icloud.net,5,Austria
Blake Alston,(641) 654-7632,"P.O. Box 237, 1793 Eu Rd.",vel.turpis.aliquam@google.ca,8,Russian Federation
Sandra Solis,(810) 752-5288,7921 Netus St.,luctus.felis.purus@icloud.org,4,Costa Rica
Amena Gilmore,(621) 586-2728,Ap #207-227 Euismod St.,curabitur@yahoo.couk,3,South Africa
Lynn Hayden,1-347-917-4824,5468 Vulputate St.,ornare.libero.at@protonmail.net,2,Sweden
Whilemina Stark,1-300-868-7913,Ap #132-6389 Suspendisse Rd.,nunc.sed@outlook.com,0,Costa Rica
Hop Hawkins,(653) 911-3285,509-7710 Curabitur Avenue,nullam.scelerisque@google.edu,3,Colombia
Tyrone Ryan,1-382-834-2475,761-1682 Nam Av.,lacinia.vitae.sodales@aol.ca,10,South Africa
Dennis Hill,(863) 262-1822,"P.O. Box 147, 1726 Cras St.",lobortis.quam.a@outlook.edu,5,Netherlands
Griffith Hayes,1-663-556-6803,"9216 Adipiscing, Ave",eu@aol.com,2,South Korea
Guy Cole,(547) 200-8623,"P.O. Box 182, 3950 Quam St.",nibh.quisque@yahoo.ca,0,South Africa
Teagan Knowles,1-484-569-5514,"687-582 Auctor, Av.",sed.dolor@yahoo.ca,7,Chile
Harding Murphy,(517) 736-0558,Ap #823-2839 Nullam Rd.,urna.vivamus.molestie@aol.edu,4,Norway
Kylie Morgan,(784) 118-9340,944-7725 Pharetra Avenue,cras.sed@icloud.net,5,Turkey
Candice Mckee,(285) 238-1498,6754 Libero Road,velit@aol.edu,4,United States
Abra Glass,1-624-747-2572,667 Nulla. St.,vitae@aol.ca,1,Colombia
Lael Tran,1-631-844-6761,633-1087 Blandit. Avenue,quam.vel@google.couk,0,Colombia
Diana Larsen,1-425-337-3643,Ap #431-5642 Nulla Rd.,phasellus@google.couk,9,New Zealand
Hanae Cortez,(303) 919-8131,Ap #794-6224 Duis Av.,id@google.edu,4,Pakistan
Solomon Key,1-384-241-4836,"P.O. Box 699, 5189 Pharetra Rd.",fringilla@outlook.org,5,Philippines
Carolyn Tillman,1-770-891-3786,Ap #754-6476 Mauris. Street,tellus.aenean.egestas@hotmail.ca,9,Germany
Winter Dean,(640) 678-5291,"P.O. Box 420, 4153 Ac Rd.",sed@aol.com,5,Ireland
Kane Skinner,1-229-576-8114,"P.O. Box 727, 7865 Ante St.",lobortis.quam@hotmail.edu,4,Ireland
Farrah Garcia,(738) 821-2834,8331 Arcu Rd.,vel.convallis.in@protonmail.edu,3,Russian Federation
Jared Coleman,1-207-262-6140,Ap #838-3585 Cras Rd.,proin@aol.ca,1,South Africa
Alec Wells,(875) 362-1486,790-1714 Consectetuer Av.,nullam.ut@protonmail.ca,5,Chile
Kirby Pierce,1-832-245-7731,"P.O. Box 420, 3400 Est Ave",aliquam.adipiscing.lacus@aol.com,4,Colombia
Gary O'connor,1-665-496-2505,Ap #503-2095 Ultrices Road,et.ipsum@yahoo.edu,1,South Korea
Daphne Charles,(957) 588-9554,"P.O. Box 856, 5863 Orci Ave",semper@protonmail.net,1,Ukraine
Jasper Harrison,1-280-856-1254,Ap #356-4310 At Road,a.magna.lorem@aol.couk,3,Chile
Petra Farmer,(961) 634-4933,Ap #642-9703 Nunc Street,sit.amet.risus@yahoo.net,7,Ukraine
Mohammad Craft,1-300-563-1694,"P.O. Box 213, 5042 Magna. Street",suspendisse@protonmail.org,8,Turkey
Uta Hensley,1-481-371-4209,Ap #777-5892 Aliquam Ave,lacinia.mattis.integer@google.ca,7,Italy
Damian Vazquez,(841) 744-9019,"P.O. Box 991, 7132 Consequat St.",morbi.sit.amet@yahoo.edu,6,China
Bradley Montoya,1-260-542-2646,979-3621 Mauris Street,turpis.nec.mauris@outlook.com,7,Ireland
Teegan Hernandez,(201) 354-6851,9084 Viverra. St.,sed.nulla.ante@aol.com,0,South Korea
Amaya Washington,(682) 708-5362,"P.O. Box 208, 7851 Magna. St.",elit@aol.edu,7,Spain
Charde Nguyen,(684) 273-9875,"P.O. Box 898, 9273 Mauris Av.",molestie.sodales.mauris@outlook.com,3,Ireland
Brianna Moss,1-773-482-2877,Ap #484-8530 Adipiscing Road,non@yahoo.com,10,Indonesia
Katell Mcbride,1-880-664-5172,"P.O. Box 318, 6012 Laoreet, Street",in@google.couk,9,Philippines
Lesley Rocha,1-236-960-4627,Ap #955-1295 Nulla St.,non.bibendum.sed@hotmail.edu,1,Germany
Ferdinand Henry,1-630-711-0745,Ap #281-756 Porttitor Street,vitae.semper.egestas@aol.net,5,Netherlands
Susan Fuller,(296) 790-9257,5448 Nisi. Road,et.malesuada@aol.net,1,Norway
Peter Newman,1-217-355-8619,"393-7813 Vel, Av.",sodales.purus@outlook.net,6,Canada
Lael Hess,(361) 473-4143,318-2080 Duis Rd.,lobortis.tellus@outlook.net,3,Belgium
Yuli Villarreal,(407) 766-5115,Ap #144-1773 Egestas Road,dui.augue@outlook.com,4,Sweden
Robin Fulton,1-644-373-7773,548-9492 In St.,urna@hotmail.edu,8,Chile
Geoffrey Blake,(562) 652-2469,669-8751 Pharetra. Street,tellus.nunc@outlook.net,5,Sweden
Fiona Heath,(181) 325-4337,577-9567 Senectus Street,et.ultrices@google.com,0,South Korea
Lacota Winters,1-723-551-1221,1614 Malesuada Av.,sed@aol.net,8,South Korea
Chaney Blair,(946) 593-6112,466-1246 Pellentesque Ave,ac.nulla.in@yahoo.org,3,Singapore
Elvis Hull,(485) 657-6335,787-1199 Ac Rd.,sodales.mauris@icloud.org,4,Brazil
Phelan Estrada,(861) 486-4704,Ap #685-457 Dictum Av.,nunc.est@icloud.ca,6,Russian Federation
Jackson Calhoun,1-236-766-1367,Ap #688-4181 Amet Av.,lacus@hotmail.couk,9,Philippines
Deirdre Curtis,(696) 227-7115,Ap #243-8822 Nulla. St.,quis.pede@hotmail.com,9,Chile
Timothy Sandoval,1-545-761-9663,5489 Tellus Ave,ligula.aenean@outlook.ca,6,South Korea
Sierra Sloan,1-167-824-2364,922-5357 Volutpat. Av.,donec@hotmail.ca,9,Sweden
Abdul Lindsay,1-204-533-2118,"P.O. Box 130, 5108 Odio Rd.",in.faucibus.morbi@icloud.net,0,Netherlands
Ariana Mullins,1-441-404-6831,Ap #693-412 Risus. Road,dictum.magna.ut@protonmail.org,3,Australia
Candice Shepherd,1-383-343-2584,"P.O. Box 597, 1787 Erat St.",eget.dictum@google.couk,0,Indonesia
Danielle Vang,(351) 218-1480,Ap #496-3436 Nulla Ave,semper.dui@aol.com,8,United Kingdom
Thaddeus Wyatt,(501) 216-8551,654-7049 Nunc Avenue,vehicula.et.rutrum@aol.org,9,France
Sarah Cooper,1-755-511-7680,Ap #834-8871 Fusce Rd.,nec.imperdiet@yahoo.ca,3,Australia
Basil Johns,(122) 324-4929,662 Odio St.,mi.felis@hotmail.ca,10,Philippines
Amela Valencia,1-413-670-8286,825-4751 Mi. Road,penatibus@protonmail.com,5,New Zealand
Gage Bridges,1-419-646-7683,819-6543 Congue. Av.,nisl@outlook.edu,10,Norway
Martin Washington,(339) 264-1149,152-1875 Sit St.,pharetra.quisque@yahoo.org,10,Peru
Austin Mooney,1-863-505-8016,885-8248 Scelerisque Ave,nostra.per@outlook.com,1,United States
Eagan Hicks,(639) 378-0779,"P.O. Box 929, 3593 Nec Ave",leo@icloud.net,8,Chile
Halee Turner,(221) 303-0348,Ap #836-9408 Gravida. Street,erat@icloud.ca,1,Ukraine
Reese Lindsey,(329) 457-7218,Ap #920-8687 Vel St.,et.libero@protonmail.org,9,Colombia
Desiree Mayer,1-418-624-8302,"P.O. Box 668, 7590 Massa St.",sociis.natoque@icloud.ca,0,Spain
Timon Gregory,(508) 482-1046,8218 Fermentum Av.,nullam@protonmail.edu,9,Vietnam
Veda Sheppard,(688) 779-3874,686-6487 Enim. Street,curabitur.dictum.phasellus@outlook.couk,6,France
Leonard Donaldson,(109) 919-9940,Ap #156-8336 Donec Av.,hendrerit.donec@outlook.net,3,Spain
Bruno Barrera,(498) 615-9617,"683-2346 Non, St.",aenean@hotmail.net,6,Italy
Liberty Morrow,(611) 324-6133,9639 Nascetur Avenue,in.condimentum@google.com,7,Netherlands
Clarke Finley,1-174-659-1661,"P.O. Box 801, 2285 Massa Street",porttitor@hotmail.ca,3,Brazil
Ima Medina,1-525-374-5284,Ap #481-3942 Ac Street,ipsum.dolor@google.edu,7,South Africa
Declan Lane,1-809-581-2736,927-2470 Tempus St.,massa.lobortis@aol.com,8,Vietnam
Aquila Jenkins,(497) 314-2120,"Ap #388-4850 A, Road",ultricies.ornare@outlook.net,3,Pakistan
Brittany Macias,1-510-851-1326,Ap #287-5825 Neque. Rd.,magnis.dis@outlook.ca,0,Mexico
Nicholas Estes,(162) 572-2162,231-9461 Aliquet St.,consectetuer@hotmail.com,8,Spain
Daniel Phillips,1-412-343-7210,"P.O. Box 297, 6398 Non St.",mi.tempor@yahoo.edu,3,Ireland
Shelly Case,(161) 421-2265,898-2161 Commodo Avenue,libero.integer@protonmail.net,2,China
Dacey Ferguson,1-252-920-7415,Ap #461-5435 Sed St.,ut.lacus.nulla@outlook.edu,4,Italy
Harding Barber,(873) 848-7072,Ap #566-1940 Ut Avenue,nibh@aol.couk,3,Russian Federation
Helen Jimenez,(763) 245-2699,160-8914 Tristique Rd.,donec.elementum@aol.ca,3,South Korea
Akeem Lang,(432) 749-4735,615 Dolor Avenue,sociis.natoque.penatibus@aol.edu,6,Ukraine
Lewis Acevedo,(352) 339-3380,Ap #355-3573 Pharetra Ave,sapien.aenean@protonmail.ca,7,Netherlands
Charissa Rivas,1-622-913-7225,101-2559 Etiam Rd.,nec@hotmail.edu,6,United Kingdom
Tallulah Bernard,(547) 516-8666,"P.O. Box 717, 9410 In Ave",non.dui@protonmail.net,5,France
Camilla Delaney,1-617-944-4635,Ap #268-298 Ornare. Ave,lacus.quisque.purus@yahoo.net,3,Colombia
Ori Moore,1-548-603-1678,Ap #838-6754 Non St.,ut.tincidunt@protonmail.net,8,Chile
Macaulay Pickett,(536) 462-9472,"P.O. Box 759, 4085 Imperdiet Avenue",nisl.arcu.iaculis@outlook.org,3,Mexico
Cally Moss,1-835-286-1167,"P.O. Box 144, 2349 Vitae St.",mauris.magna.duis@yahoo.edu,9,Italy
Candice Butler,1-530-864-8826,Ap #543-743 Gravida. Rd.,congue.in@icloud.com,9,South Africa
Rhona Cantu,(643) 494-8935,2857 Malesuada Street,ipsum.suspendisse@aol.edu,4,Ireland
Inga Ewing,1-225-351-5257,453-6814 Porttitor St.,aliquet@google.ca,8,Netherlands
Peter Maldonado,(651) 801-8376,"P.O. Box 157, 4441 Feugiat St.",ac.mattis@protonmail.edu,6,China
Robert Kane,1-826-836-8569,"Ap #248-9414 Lorem, Street",enim@aol.ca,3,Ukraine
Nolan Sutton,1-159-144-4557,Ap #685-872 Vestibulum Road,ornare@protonmail.ca,0,Pakistan
Anthony Palmer,(348) 741-7854,Ap #840-5705 Eu Rd.,consequat.lectus.sit@protonmail.couk,4,Peru
Dillon Lindsay,1-985-386-4036,Ap #903-9890 Ridiculus Road,a.auctor.non@hotmail.org,1,Canada
Chandler Contreras,1-188-605-5034,Ap #586-7112 Sodales Rd.,at.sem@google.ca,1,Poland
Vladimir Leon,1-396-482-6505,Ap #672-4740 A Avenue,in.condimentum@google.ca,3,China
Serena Horne,1-471-195-9044,Ap #967-2131 Augue. St.,at@outlook.com,3,Nigeria
Amery Bailey,(741) 866-3264,663-1687 Eros St.,venenatis.vel@hotmail.com,8,Austria
Nicholas Mcdonald,1-526-539-5287,147-4663 Tristique Av.,ac.sem@aol.ca,3,Spain
Lamar Cross,(525) 863-6866,850-1447 Per Road,sit@protonmail.couk,4,Mexico
Burton Hobbs,(297) 377-1268,Ap #223-9748 Ultrices. Rd.,turpis@yahoo.couk,9,India
MacKensie Middleton,1-310-835-8387,576-8692 Orci. Avenue,id.erat.etiam@icloud.net,6,Turkey
Karleigh Tran,1-314-932-7638,203-8830 Justo Avenue,mauris.sagittis@aol.com,2,Singapore
Sheila Simmons,1-777-595-4384,255-8495 Ullamcorper Avenue,vehicula.risus@protonmail.com,4,Russian Federation
Xandra Miranda,1-295-506-1514,663-4904 Tempus Road,massa.rutrum@outlook.edu,5,Peru
Fiona Gregory,(887) 273-4815,722-3715 Pellentesque Av.,eleifend.vitae@yahoo.org,9,France
April Sharp,(856) 586-0749,"P.O. Box 399, 721 A Avenue",justo.proin@protonmail.com,2,Colombia
Joseph Roberson,(415) 787-1661,"P.O. Box 144, 539 Vulputate Rd.",arcu.curabitur.ut@protonmail.edu,2,Nigeria
Rogan Houston,(417) 663-2425,"P.O. Box 653, 6358 Dapibus Ave",eget.laoreet.posuere@protonmail.org,7,United Kingdom
Philip Perkins,(571) 839-7748,"P.O. Box 781, 3442 Nulla Av.",lectus.ante@yahoo.couk,5,Austria
Evan Guerrero,(615) 584-1420,351-7865 Et St.,vitae.posuere@google.com,9,Sweden
Jarrod Hendricks,(662) 299-2571,"P.O. Box 692, 2402 Justo Road",nascetur.ridiculus@aol.edu,9,Ireland
Ronan Mendez,(663) 322-8227,733-245 Luctus St.,vestibulum.mauris.magna@google.ca,6,Sweden
Belle Glenn,(765) 360-7327,440-1264 Posuere Street,augue.ut.lacus@icloud.ca,7,Colombia
Chadwick Huff,(561) 619-9458,"P.O. Box 395, 6386 Ut, Road",hendrerit@google.couk,1,Spain
Zenaida Valentine,(675) 661-4391,"683-5766 Sed, Street",mauris.sapien@google.net,1,Philippines
Courtney Jefferson,1-896-926-7538,310-477 Augue Ave,ligula.aenean@yahoo.edu,4,Turkey
Bert Jackson,(841) 967-2160,Ap #153-7137 Per Road,blandit.nam@icloud.com,3,Vietnam
Castor Lester,1-885-434-1541,"P.O. Box 205, 4356 Curae Rd.",amet.ornare@icloud.net,7,Austria
Zeus Ratliff,(819) 471-5538,188-7792 Libero. Rd.,dictum.eleifend@hotmail.edu,9,Ireland
Shafira Martin,1-281-333-3823,6943 Quisque St.,mauris.eu@hotmail.couk,9,New Zealand
August O'connor,1-783-779-8842,210-5585 Nunc Rd.,amet.dapibus.id@yahoo.org,3,United Kingdom
Warren Jacobson,1-270-739-5289,713-4799 Diam. Ave,lorem.ipsum.dolor@hotmail.org,8,Netherlands
Ulla Clark,(670) 237-8718,429-9948 Nulla St.,sapien.cras@yahoo.com,0,China
Elvis Vega,1-559-264-2100,"P.O. Box 443, 4959 Velit. St.",amet.nulla@icloud.org,1,Chile
Dieter Estrada,(637) 528-8628,"P.O. Box 467, 2092 Orci. Av.",tellus@outlook.edu,0,South Korea
Uriel Moreno,1-320-195-4721,Ap #631-1461 Luctus Road,dolor.sit.amet@protonmail.couk,2,Australia
Maia Weber,1-183-532-4555,Ap #545-3560 Mi Rd.,senectus.et@yahoo.org,4,Italy
Aiko Woodard,1-820-411-4604,347 Duis Avenue,nascetur.ridiculus@icloud.ca,8,Italy
Josiah Bush,1-246-285-2966,"P.O. Box 662, 6501 Cursus Avenue",sed.eu.eros@hotmail.ca,10,Belgium
Vance Wilkins,1-275-754-4880,520-8838 Purus Rd.,quis.arcu@outlook.net,6,China
Colette Alford,(750) 815-8263,Ap #678-3874 Phasellus Av.,eleifend@google.net,9,Chile
Stephanie Bailey,1-852-884-3167,Ap #328-2943 Tellus. Av.,auctor@google.com,0,Singapore
Dai Fields,(281) 674-6515,7225 Bibendum Avenue,montes@hotmail.net,9,Ukraine
Kareem Holcomb,(477) 536-3255,"P.O. Box 843, 6773 Etiam Rd.",in.nec@outlook.ca,8,Nigeria
Sydney Jensen,1-675-746-6066,"P.O. Box 429, 9179 Eu Avenue",donec.elementum.lorem@protonmail.com,5,Singapore
Quinlan Bean,(374) 987-8811,959-9631 Faucibus Av.,dictum.eu.eleifend@google.org,0,Spain
Brady Cruz,(791) 545-5442,354-1663 Pellentesque Street,lorem@outlook.edu,6,South Korea
Kane Russell,(616) 508-3468,Ap #779-1529 Mi St.,suspendisse@hotmail.couk,2,Peru
Louis Jefferson,(875) 964-5587,"P.O. Box 331, 1679 Aenean St.",proin.ultrices@outlook.edu,8,Chile
Leonard Marquez,1-601-781-6374,300-2289 Dis Ave,nec@protonmail.com,6,Norway
Jillian Mcintosh,(241) 657-7365,Ap #281-1899 Auctor Road,lectus@icloud.ca,0,Ukraine
Yvette Salinas,1-503-168-4255,784-4522 Tristique St.,nulla.at.sem@yahoo.ca,6,Costa Rica
Fletcher Nicholson,1-123-232-7431,877-9861 Sociis Avenue,lacus@outlook.org,5,United States
Alexander Miles,(722) 442-2216,"Ap #199-1933 Felis, Rd.",cras@protonmail.net,8,New Zealand
Georgia Oneil,1-633-268-9795,536-9370 Eleifend Rd.,aliquet@outlook.ca,2,Belgium
Lance Bass,1-136-264-2227,"P.O. Box 285, 9685 Vestibulum Ave",fermentum.vel@hotmail.net,6,Ireland
Fleur Chavez,(391) 302-9287,577-1472 Justo Ave,leo.in@outlook.ca,6,Brazil
Britanni Robles,(591) 241-1415,890-5576 Purus. Street,nunc.in@hotmail.com,0,Brazil
Naomi Carney,(545) 345-1634,9936 Lacus Av.,metus.vivamus@hotmail.org,8,South Korea
Thaddeus Holman,1-452-774-0192,"P.O. Box 597, 1473 Eget St.",enim.non.nisi@icloud.couk,8,South Korea
Thane Sears,1-433-381-3677,3774 Sit Rd.,diam@icloud.edu,10,Russian Federation
Medge Alford,(623) 224-8170,"6298 Sapien, Avenue",iaculis.odio.nam@aol.couk,0,Brazil
Colorado Miller,(246) 647-3630,485-9339 Egestas. Avenue,et.libero.proin@aol.ca,6,South Korea
Chase Copeland,(467) 473-2043,Ap #735-4096 Nunc Ave,id@outlook.ca,5,Belgium
Quin Rivera,1-287-377-1410,Ap #703-2907 Gravida. Ave,et@aol.ca,3,Australia
Myra Dale,1-487-933-2166,508-1108 Vehicula. Rd.,libero.integer.in@aol.couk,0,Sweden
Charity Wiley,(651) 629-8324,513-966 Duis Rd.,quis.arcu.vel@protonmail.edu,8,Belgium
Ignatius Crawford,(533) 773-9383,875-5861 Quis St.,luctus.et@google.edu,7,Mexico
Mona Chan,(527) 213-8082,"P.O. Box 569, 1376 Mauris Rd.",odio.auctor@hotmail.net,1,Chile
Sylvester Ross,(335) 225-7857,"Ap #213-5608 Quam, Av.",eros.non.enim@google.net,9,Australia
Wyatt Barlow,1-876-302-6689,5288 Nunc Rd.,diam.vel@outlook.com,1,Chile
Leah Frye,(212) 725-3066,Ap #199-1259 Eget Avenue,gravida.sagittis@protonmail.couk,2,China
India Alvarado,1-466-588-1527,714-6954 Lorem. Ave,sit@protonmail.org,4,Brazil
Jesse Lloyd,(248) 969-6977,"4029 Risus, Av.",non.magna@outlook.com,3,Pakistan
Erich Pacheco,1-336-611-2395,567-6472 Condimentum. Av.,lorem.luctus@hotmail.net,5,Russian Federation
Bree Hamilton,(165) 951-4412,"P.O. Box 466, 4965 Ut Rd.",cras@hotmail.org,10,Canada
Abdul Fernandez,(761) 784-2778,Ap #752-3281 Blandit St.,lorem@hotmail.net,9,South Africa
Colton Pacheco,(956) 307-2567,"Ap #187-5241 Ac, Rd.",ligula.elit.pretium@yahoo.couk,3,France
Raya Shaffer,1-357-866-9875,Ap #348-6530 Eu Road,justo.proin@icloud.edu,8,New Zealand
Maya Maldonado,(568) 626-4104,790-7760 Ut Rd.,sit.amet@protonmail.org,2,Spain
Preston Patton,1-484-555-5376,Ap #305-3139 Nisi Ave,nam.interdum@hotmail.org,7,Mexico
Glenna Johns,(315) 738-6371,Ap #107-360 Nec Street,vel.mauris@hotmail.couk,6,Belgium
Lee Baird,(762) 816-9838,"P.O. Box 663, 5971 Ligula. Rd.",montes.nascetur.ridiculus@google.edu,4,Austria
Medge Nieves,1-681-672-6544,"P.O. Box 519, 6234 Sit Rd.",imperdiet.ullamcorper@aol.ca,7,Indonesia
Morgan Freeman,(312) 224-4911,529-6817 Cum Rd.,iaculis.enim@outlook.net,0,Ireland
Dillon Johnson,1-377-568-6437,605-3019 Ornare Ave,nam.ligula@yahoo.ca,3,Chile
Emery Strickland,(776) 148-5179,Ap #692-5283 Eget Avenue,ut@yahoo.org,9,Singapore
Francesca Murphy,(737) 586-1024,662-5845 Quis Road,neque.vitae.semper@hotmail.org,2,Peru
Natalie Beard,(377) 613-8832,Ap #951-1453 Aliquam Street,non.egestas@aol.ca,8,South Africa
Glenna Hopper,1-444-638-3527,Ap #498-4270 Diam. Rd.,risus.donec@google.ca,2,Spain
Herrod Nichols,(116) 858-6180,167-6815 Nascetur Street,urna.et@google.couk,1,Sweden
Kaitlin Roach,(540) 113-3958,"P.O. Box 567, 2972 Tempor Avenue",sit.amet.risus@yahoo.couk,7,Italy
Mariko Rivers,(577) 557-6364,305-1190 Turpis Street,ut.eros@protonmail.org,6,Chile
Mechelle Mckay,(372) 637-5426,"6340 Felis, Rd.",lorem@yahoo.couk,0,Germany
Burton Salazar,1-443-245-7743,917-6690 Enim Rd.,donec.porttitor@icloud.com,8,Poland
Cheryl Hines,(724) 168-4513,"P.O. Box 675, 7255 Eget St.",ipsum.dolor@aol.org,6,Canada
Harlan Preston,1-586-301-3865,"882-7489 Ultrices, St.",adipiscing.lacus@outlook.couk,10,Brazil
Azalia Richmond,1-535-260-8261,2310 Aliquam Rd.,enim.consequat@google.net,4,Turkey
Quinn Simpson,1-549-889-2555,"6282 Eu, Rd.",ante@hotmail.edu,8,Indonesia
Branden Gallegos,1-182-494-5799,"P.O. Box 599, 2589 Erat Rd.",luctus.ut@protonmail.com,10,Brazil
Nasim Simon,(384) 714-2193,"P.O. Box 544, 4615 Egestas. Avenue",enim@yahoo.ca,6,Australia
David Mendoza,(732) 646-1714,3059 Sapien Road,etiam.ligula.tortor@google.com,6,United Kingdom
Katelyn Mckay,(863) 244-5384,Ap #359-3362 Enim. Ave,libero@google.ca,5,Canada
Winter Harding,(276) 543-7199,"P.O. Box 992, 9135 Conubia St.",sed.hendrerit@icloud.couk,2,India
Daniel Townsend,1-723-913-0359,625-3768 Et Avenue,a.nunc.in@icloud.org,2,New Zealand
Rhoda Conway,1-513-381-7134,Ap #100-4245 Mi. Street,dui@hotmail.org,1,Canada
Chelsea Chase,1-613-921-5663,701-4643 Fringilla Avenue,lorem@icloud.couk,1,Indonesia
Grady Whitley,1-547-234-8857,281-8808 Semper. Rd.,amet.consectetuer@hotmail.net,8,Indonesia
Ross Duke,1-616-793-8197,"P.O. Box 211, 6016 Lectus Avenue",molestie.pharetra.nibh@aol.org,6,Sweden
Cedric Sanders,1-441-355-8947,Ap #850-5435 Gravida St.,fringilla.purus@aol.edu,1,Costa Rica
Fredericka Walker,1-213-596-8918,1760 Sollicitudin St.,ac.arcu.nunc@outlook.ca,2,Peru
Maxine Sparks,1-705-211-4188,289-7917 In Street,amet.metus@aol.couk,4,South Africa
Leo Tran,(440) 827-9678,Ap #817-5566 Vulputate Street,semper@google.edu,4,United States
Justina Sheppard,(677) 615-7118,451 Laoreet Ave,luctus.sit@google.couk,3,France
Timothy Jenkins,(741) 571-8609,"P.O. Box 457, 5413 Turpis Av.",vitae.orci@icloud.com,4,Singapore
Griffith Foster,(534) 131-4671,"P.O. Box 471, 139 Massa. Street",donec@google.couk,1,Indonesia
Avye Delaney,1-552-459-9625,6279 Facilisis Rd.,magna.nec@google.net,5,France
Ciara Donaldson,1-194-446-6028,"P.O. Box 477, 8774 Mauris Rd.",ipsum.curabitur.consequat@icloud.edu,8,Singapore
Jordan Huffman,1-622-436-8669,Ap #278-5399 Cras Road,sit.amet@yahoo.couk,9,Norway
Lamar Hughes,(801) 452-8589,Ap #326-3445 Vel Ave,nunc.laoreet.lectus@google.couk,5,United States
Veda Rasmussen,1-816-578-5277,"P.O. Box 339, 8456 Imperdiet, Rd.",euismod.mauris.eu@aol.org,9,United Kingdom
Kylynn Bradley,1-367-961-1257,Ap #714-3371 Dignissim Ave,vivamus.non@outlook.org,7,South Korea
Malachi Figueroa,1-274-616-4066,3397 Eros. Street,magnis.dis.parturient@yahoo.ca,1,Costa Rica
Aristotle Flores,(469) 503-1964,397-3751 Convallis Road,amet@google.com,2,United Kingdom
Thor Sutton,1-808-332-2047,Ap #752-8016 Felis Rd.,placerat@google.edu,10,Norway
Evangeline Ayers,1-363-842-7143,541-1385 Arcu. Road,cras.convallis.convallis@protonmail.com,8,France
Sage Knight,1-587-275-7213,"P.O. Box 742, 1357 Leo. Street",risus.donec.egestas@protonmail.couk,8,Brazil
Alvin Holmes,1-392-773-5638,"P.O. Box 560, 6548 Tempor Avenue",facilisis.facilisis@icloud.net,6,Turkey
Kellie Lyons,(544) 238-0256,"P.O. Box 562, 5145 Eget St.",sagittis.placerat.cras@hotmail.ca,5,Costa Rica
Emerald Zimmerman,1-524-337-3302,843-9436 Tristique St.,ultrices.duis.volutpat@google.org,4,Nigeria
Adria Ball,1-526-172-1812,6485 Arcu. Street,lectus@yahoo.net,0,Ukraine
Gloria Walker,(653) 652-9786,5392 Vestibulum St.,venenatis@icloud.ca,8,Vietnam
Elmo Browning,1-617-789-4428,2958 Nunc Rd.,mollis.vitae@google.net,6,Germany
Lenore Mcmahon,1-648-912-8481,Ap #175-8618 Ridiculus Rd.,ut.nisi@yahoo.couk,6,United Kingdom
MacKensie Long,1-524-454-4757,3302 Mauris Rd.,eget.metus@protonmail.couk,6,Peru
Drake Duffy,(235) 726-2314,Ap #441-1999 Metus. Avenue,commodo@protonmail.couk,3,Germany
Ali Dyer,(692) 735-9454,Ap #662-8551 Suscipit Av.,proin.mi.aliquam@aol.edu,3,Italy
Angela Patrick,(422) 707-6774,170-4563 Tempus Rd.,sapien@outlook.couk,5,China
Imelda Howell,(152) 616-6776,8598 Ipsum. Avenue,eu.sem@outlook.couk,8,Peru
Brittany Carpenter,(171) 306-7262,"P.O. Box 342, 2684 Quis St.",nisi.aenean.eget@aol.edu,2,Netherlands
Evangeline David,1-323-622-3948,413 Hendrerit Ave,nunc.interdum@aol.edu,6,Australia
Malcolm Harrington,1-610-313-9224,389 Nisi Av.,ornare.elit@aol.org,1,France
Travis Ryan,1-223-228-6881,Ap #831-5348 Dolor. Ave,dui.semper@outlook.ca,7,Belgium
Risa Alford,1-546-676-6473,Ap #176-9961 Massa. Avenue,egestas.rhoncus.proin@google.couk,1,United States
Whoopi James,(517) 872-6424,"P.O. Box 744, 1391 Eu Ave",quis.diam@google.net,0,South Korea
Reed Bush,(225) 954-6977,325-583 Est. St.,ullamcorper@google.net,4,Colombia
Akeem Hansen,(432) 331-6436,4333 Integer Road,nam@protonmail.com,10,South Korea
Christopher Quinn,(276) 881-5676,189-6560 Felis Av.,vehicula@hotmail.net,7,Ireland
Burke Kidd,(469) 555-6265,Ap #213-980 Egestas St.,eget.mollis.lectus@hotmail.couk,1,South Africa
Brandon Mccormick,(636) 472-4460,Ap #903-4361 Morbi St.,eu.placerat.eget@google.org,0,Indonesia
Paki Nelson,1-474-452-4582,Ap #535-2043 Mauris St.,odio@hotmail.couk,9,Italy
Kelly Randall,(826) 221-9311,Ap #806-7935 Nonummy Rd.,tellus@icloud.org,2,Brazil
Declan Dale,1-713-217-6138,772 Ullamcorper. St.,nulla.ante@yahoo.edu,7,China
Kennedy Stephens,(648) 783-6965,913-9235 Vulputate Rd.,amet.diam@outlook.net,6,South Korea
Lewis Barry,(390) 782-0229,349 Rutrum. Rd.,quisque.tincidunt@google.couk,8,Germany
Demetrius Duffy,1-452-558-1813,"P.O. Box 412, 493 Quisque Av.",nunc.quis@yahoo.ca,6,Belgium
Odysseus Gray,(422) 851-4462,"P.O. Box 178, 7700 Dolor Ave",arcu@outlook.com,6,Russian Federation
Octavia Patton,1-383-478-9968,5048 Adipiscing Ave,lobortis.quis.pede@hotmail.net,1,South Africa
Alan Duffy,(734) 961-7526,"P.O. Box 188, 1891 Vel, Rd.",aliquam.auctor.velit@yahoo.couk,9,Mexico
Cruz Rivera,1-861-248-4587,"P.O. Box 133, 7632 Metus. Rd.",integer.urna@outlook.couk,0,Indonesia
Xanthus Navarro,(263) 452-2332,801-4577 Curabitur Road,aliquet@hotmail.org,2,South Africa
Lani Sloan,(961) 672-8367,Ap #379-1527 Quis St.,nec.orci@protonmail.com,5,Vietnam
Ivor Henderson,(414) 929-3921,2130 Cursus Avenue,a@protonmail.com,7,Vietnam
Laith Atkinson,1-479-737-4934,"P.O. Box 150, 9765 Ac Rd.",nec@google.org,2,South Africa
Hop Hinton,1-705-212-9213,Ap #260-5206 Dui Av.,quisque.porttitor@icloud.ca,4,India
Chastity Dickson,1-217-772-2265,Ap #405-4470 Velit. St.,amet.metus@aol.couk,10,United States
Joan Gill,(897) 451-2802,123-7357 Etiam St.,adipiscing.elit@protonmail.edu,2,Turkey
Eaton Duran,1-166-643-3676,Ap #112-9992 Sit St.,dapibus@google.ca,1,Belgium
Lawrence Mays,(652) 670-6237,Ap #881-7664 Sagittis Rd.,mattis.semper@yahoo.ca,4,Poland
Jerome Eaton,1-684-530-3316,"P.O. Box 265, 890 Sollicitudin Street",eu.turpis@aol.com,9,United Kingdom
Felix Kramer,(283) 856-3663,803-6995 Ut Street,cum@protonmail.com,8,Sweden
Peter Carlson,1-817-627-5038,256-6799 Amet Rd.,cras.vehicula.aliquet@hotmail.edu,2,Canada
Xandra Zamora,1-458-350-6229,Ap #983-1075 Euismod St.,lorem@aol.net,9,Ireland
Lev Ellis,1-954-618-6247,949-6329 Diam. St.,aliquam.enim.nec@hotmail.net,7,Brazil
Justina Acosta,1-565-475-9121,Ap #896-3561 Ante St.,metus.eu@aol.net,3,Ireland
Tarik Travis,(983) 889-1664,"P.O. Box 261, 7856 Nisi Ave",mauris.eu@yahoo.edu,4,Spain
Hollee Tate,(754) 437-8398,788-6121 Nisl. Rd.,primis.in@protonmail.net,2,Netherlands
Elizabeth Rivas,1-652-331-0302,"Ap #169-3718 Orci, St.",in@aol.net,5,South Korea
Kiara King,(239) 454-5471,Ap #102-2233 Nascetur Road,aliquet.diam@hotmail.net,3,Australia
Fitzgerald Briggs,1-119-577-3059,"P.O. Box 264, 871 Diam. St.",eu@protonmail.com,2,Austria
Hedley Dunn,(188) 685-3832,Ap #894-9287 Libero Rd.,diam.luctus@aol.net,6,India
Cathleen Dale,(411) 801-1036,4607 Gravida Avenue,at.nisi@icloud.ca,5,New Zealand
Aquila Bruce,(875) 847-9222,Ap #608-5604 Risus. Road,ligula@yahoo.org,3,Indonesia
Elvis Small,(222) 613-2352,643-9265 Non Road,non.arcu@protonmail.couk,5,France
Karleigh Kirkland,(688) 723-0063,128-4303 Accumsan Road,fusce@icloud.org,5,Ukraine
Serina Suarez,(554) 581-7714,Ap #437-3443 Taciti Street,sapien.imperdiet@icloud.ca,8,Vietnam
Tarik Stout,1-964-984-2858,250-914 Morbi Street,laoreet.lectus.quis@hotmail.couk,10,Singapore
Matthew Skinner,(252) 746-3176,Ap #942-1109 Dui Ave,lectus@hotmail.org,1,Singapore
Alfreda Lloyd,1-748-161-1685,Ap #145-6540 Vitae St.,nulla@protonmail.couk,10,United Kingdom
Lana Fischer,(588) 243-8127,Ap #995-4979 Quis Av.,vulputate.lacus.cras@protonmail.ca,1,Pakistan
Troy Sweeney,(536) 806-3866,660-1500 Egestas St.,vivamus.rhoncus.donec@aol.edu,4,China
Maggie Orr,1-740-848-1451,9187 Sit Rd.,mollis.lectus@protonmail.net,9,Norway
Juliet Boyle,1-265-255-4373,Ap #352-1094 Felis Rd.,vulputate.eu@aol.org,4,Russian Federation
Mohammad Rocha,1-127-379-7001,748-3741 Sagittis. Rd.,quis.urna.nunc@google.ca,2,Italy
Colorado Donaldson,(552) 523-0776,979-9229 Aliquam Street,vitae.diam@hotmail.org,7,Mexico
Denise Dominguez,(768) 733-6227,Ap #355-7510 Egestas. Street,nunc.mauris@yahoo.com,1,Pakistan
Marshall Hahn,1-861-935-5598,Ap #713-7416 Donec Rd.,nam.ac@yahoo.net,7,Netherlands
Fritz Durham,(769) 417-1663,Ap #276-6300 Magna. Av.,lacus.quisque@google.edu,1,India
Samuel Kerr,1-688-161-3124,"P.O. Box 159, 8656 Aliquam, Rd.",imperdiet.non@google.couk,1,Norway
Phoebe Scott,1-476-813-8839,504 Duis Rd.,porta.elit@outlook.ca,6,Poland
Blake Russell,(756) 505-1705,"2434 Mauris, Ave",elit@outlook.ca,4,Italy
Leila Terrell,(163) 351-2688,Ap #280-4602 Egestas Av.,elit.nulla.facilisi@icloud.ca,3,Germany
Jonah Lara,1-922-483-4164,"7523 Non, Av.",nullam.suscipit@yahoo.net,3,United Kingdom
Brittany Riley,(339) 822-3828,587-9033 Eget Ave,nulla.integer@hotmail.couk,4,New Zealand
Chase Pierce,1-630-621-2598,564 Sit St.,morbi.vehicula.pellentesque@hotmail.org,3,Austria
Vielka Lewis,(719) 720-7346,"763-4418 Dolor, Rd.",molestie.in.tempus@google.com,0,Mexico
Whoopi Jacobson,1-506-687-3879,"Ap #897-1684 Id, Ave",augue.ac@protonmail.ca,9,South Africa
Marcia Casey,1-386-231-6617,787-8989 Pretium Avenue,magna.praesent@google.com,1,United Kingdom
Karly Burgess,(541) 826-2428,4519 Accumsan St.,eu.nulla.at@google.ca,3,Turkey
Velma Martinez,(618) 513-4822,"Ap #204-5921 Ac, Ave",nisl.quisque.fringilla@outlook.couk,0,Singapore
Alec Fitzpatrick,1-117-961-1516,Ap #949-1524 Cum Rd.,et.tristique@icloud.org,4,United States
Ryder Harmon,1-742-858-4005,"P.O. Box 534, 6701 Nulla Road",justo.sit@protonmail.net,3,New Zealand
Gannon Rodriquez,1-863-182-8079,Ap #683-2643 Suspendisse Av.,nullam.suscipit@protonmail.com,7,Canada
Cooper Kemp,1-111-272-3364,Ap #397-6705 Convallis Street,parturient.montes@aol.edu,3,Peru
Davis Keller,1-622-567-2212,"P.O. Box 277, 2292 Consectetuer St.",facilisis.magna@aol.org,6,Austria
Quinn Leblanc,1-815-218-7871,Ap #282-982 Primis Street,nunc.ullamcorper.eu@outlook.com,3,Germany
Fletcher Simpson,(359) 816-2406,550-3179 Erat Street,dui.quis@protonmail.com,10,Russian Federation
Elizabeth Hutchinson,(687) 603-2736,"570-2482 Dui, Road",elit.erat@aol.com,3,Sweden
Lance Rowland,1-911-178-7812,Ap #368-3462 Suspendisse St.,velit.pellentesque.ultricies@google.edu,9,Russian Federation
Shad Blevins,1-361-903-8711,740-3858 Augue Road,vestibulum.massa@google.ca,6,Peru
Amaya Haney,(391) 508-4523,"8630 Eu, St.",arcu.vestibulum@icloud.couk,8,China
Lane Petersen,1-771-588-9100,"P.O. Box 574, 2104 Sit Avenue",tellus.justo@icloud.ca,7,Belgium
Grace Britt,1-481-350-4500,4709 Aenean Street,suspendisse.aliquet.molestie@icloud.ca,0,Russian Federation
Xanthus Hurst,(915) 557-6687,Ap #662-6743 Arcu Av.,lacus.quisque@aol.net,5,China
Hop Hansen,(351) 542-2721,1914 Lacus. Av.,duis.cursus@aol.org,10,Nigeria
Connor Abbott,1-586-668-6435,Ap #527-385 Morbi Rd.,ante.nunc@google.com,3,Brazil
Quinn Phillips,1-799-255-2712,"P.O. Box 539, 6349 Nulla Ave",nec.enim@hotmail.net,7,Poland
Jordan Mendoza,(671) 377-7477,"P.O. Box 354, 4497 Neque Ave",eu@aol.ca,4,South Korea
Keane Briggs,1-926-944-6414,4565 Ac Av.,massa.rutrum.magna@icloud.couk,4,India
Astra Morgan,(703) 166-3926,115-9865 Lobortis Street,sapien.imperdiet.ornare@hotmail.ca,2,Poland
Bethany Carroll,(755) 308-3747,8988 Egestas. St.,a@aol.edu,4,Russian Federation
Ruth Vega,(522) 669-5668,Ap #439-5650 Aenean Ave,morbi.quis.urna@aol.com,6,Poland
Sonia Hebert,1-215-587-5231,1810 Dui. Avenue,montes.nascetur@aol.net,7,Mexico
Solomon Greene,(848) 288-2114,"P.O. Box 241, 7468 Tempus Avenue",nulla.facilisis@outlook.net,3,South Korea
Kadeem Zamora,1-964-433-6547,940-6705 Dui St.,in.consequat@protonmail.ca,4,Sweden
Jelani Short,(725) 623-2388,"P.O. Box 883, 6103 Eros. Rd.",fusce.feugiat.lorem@aol.net,1,Sweden
Ava Jimenez,(853) 593-7063,423-4460 Metus St.,faucibus@outlook.couk,8,Vietnam
Caesar Williams,(746) 361-3325,668-5635 Mauris Ave,eu@protonmail.ca,1,Russian Federation
Jerry Dodson,(768) 234-0378,541-4573 Penatibus Ave,purus.gravida.sagittis@outlook.org,4,Philippines
Mark Hensley,1-562-536-8318,"7758 Et, Ave",sit.amet@protonmail.net,2,Italy
Martin Bennett,(876) 737-7332,734-6513 Scelerisque Street,mauris.erat.eget@hotmail.net,5,Brazil
Burton Rosa,(332) 137-4421,Ap #866-2543 Sagittis. St.,risus.quis@icloud.couk,3,Canada
Britanney Baxter,(135) 734-4873,972-6934 Ipsum Street,dui@protonmail.ca,3,Austria
Timothy Kent,(378) 344-1843,"P.O. Box 586, 1971 Quis, Ave",vel.convallis@hotmail.org,7,New Zealand
Lev Finch,(527) 631-2413,"2111 Eget, Rd.",turpis.non@hotmail.couk,6,Mexico
Karyn Maynard,(474) 796-1102,Ap #325-7127 Feugiat. St.,pellentesque.tellus@yahoo.com,10,Ireland
